{
  "type": "FeatureCollection",
  "features": [
    {
      "type": "Feature",
      "properties": {
        "norad_id": 34434,
        "name": "COSMOS 2251 DEB",
        "group": "cosmos-2251-debris",
        "lat": 41.12514330163043,
        "lon": 39.02869574901136,
        "alt_km": 1024.5415123704615,
        "timestamp": "2025-12-04T05:42:43.766417+00:00",
        "meta_object_name": "COSMOS 2251 DEB",
        "meta_object_id": "1993-036SB",
        "meta_epoch": "2025-12-03T22:55:01.016832",
        "meta_mean_motion": 13.89706008,
        "meta_eccentricity": 0.0276238,
        "meta_inclination": 74.0639,
        "meta_ra_of_asc_node": 25.064,
        "meta_arg_of_pericenter": 164.3761,
        "meta_mean_anomaly": 265.6561,
        "meta_ephemeris_type": 0,
        "meta_classification_type": "U",
        "meta_norad_cat_id": 34434,
        "meta_element_set_no": 999,
        "meta_rev_at_epoch": 83844,
        "meta_bstar": 0.0057864949,
        "meta_mean_motion_dot": 9.636e-05,
        "meta_mean_motion_ddot": 0,
        "tle_line1": "1 34434U 93036SB  25337.95487288  .00009636  00000+0  57865-2 0  9996",
        "tle_line2": "2 34434  74.0639  25.0640 0276238 164.3761 265.6561 13.89706008838442"
      },
      "geometry": {
        "type": "Point",
        "coordinates": [
          39.02869574901136,
          41.12514330163043
        ]
      }
    },
    {
      "type": "Feature",
      "properties": {
        "norad_id": 34446,
        "name": "COSMOS 2251 DEB",
        "group": "cosmos-2251-debris",
        "lat": -29.30958027304667,
        "lon": -97.53159909495146,
        "alt_km": 696.7539130869782,
        "timestamp": "2025-12-04T05:42:43.766427+00:00",
        "meta_object_name": "COSMOS 2251 DEB",
        "meta_object_id": "1993-036SP",
        "meta_epoch": "2025-12-03T10:31:10.797024",
        "meta_mean_motion": 14.49334072,
        "meta_eccentricity": 0.00515727,
        "meta_inclination": 74.0422,
        "meta_ra_of_asc_node": 74.7236,
        "meta_arg_of_pericenter": 214.8277,
        "meta_mean_anomaly": 144.9505,
        "meta_ephemeris_type": 0,
        "meta_classification_type": "U",
        "meta_norad_cat_id": 34446,
        "meta_element_set_no": 999,
        "meta_rev_at_epoch": 88559,
        "meta_bstar": 0.00025913208,
        "meta_mean_motion_dot": 9.78e-06,
        "meta_mean_motion_ddot": 0,
        "tle_line1": "1 34446U 93036SP  25337.43831941  .00000978  00000+0  25913-3 0  9991",
        "tle_line2": "2 34446  74.0422  74.7236 0051572 214.8277 144.9505 14.49334072885592"
      },
      "geometry": {
        "type": "Point",
        "coordinates": [
          -97.53159909495146,
          -29.30958027304667
        ]
      }
    },
    {
      "type": "Feature",
      "properties": {
        "norad_id": 34449,
        "name": "COSMOS 2251 DEB",
        "group": "cosmos-2251-debris",
        "lat": 54.14524149088314,
        "lon": 111.03459211389644,
        "alt_km": 576.6755635537602,
        "timestamp": "2025-12-04T05:42:43.766437+00:00",
        "meta_object_name": "COSMOS 2251 DEB",
        "meta_object_id": "1993-036SS",
        "meta_epoch": "2025-12-03T18:45:32.810400",
        "meta_mean_motion": 14.93927171,
        "meta_eccentricity": 0.00248451,
        "meta_inclination": 74.0322,
        "meta_ra_of_asc_node": 88.6117,
        "meta_arg_of_pericenter": 137.2898,
        "meta_mean_anomaly": 347.0572,
        "meta_ephemeris_type": 0,
        "meta_classification_type": "U",
        "meta_norad_cat_id": 34449,
        "meta_element_set_no": 999,
        "meta_rev_at_epoch": 88559,
        "meta_bstar": 0.0049074408,
        "meta_mean_motion_dot": 0.00052908,
        "meta_mean_motion_ddot": 0,
        "tle_line1": "1 34449U 93036SS  25337.78162975  .00052908  00000+0  49074-2 0  9999",
        "tle_line2": "2 34449  74.0322  88.6117 0024845 137.2898 347.0572 14.93927171885593"
      },
      "geometry": {
        "type": "Point",
        "coordinates": [
          111.03459211389644,
          54.14524149088314
        ]
      }
    },
    {
      "type": "Feature",
      "properties": {
        "norad_id": 34451,
        "name": "COSMOS 2251 DEB",
        "group": "cosmos-2251-debris",
        "lat": 6.866898945275217,
        "lon": 106.9831219013858,
        "alt_km": 595.2949256857546,
        "timestamp": "2025-12-04T05:42:43.766448+00:00",
        "meta_object_name": "COSMOS 2251 DEB",
        "meta_object_id": "1993-036SU",
        "meta_epoch": "2025-12-02T10:18:18.339552",
        "meta_mean_motion": 14.94509424,
        "meta_eccentricity": 0.00259091,
        "meta_inclination": 74.0446,
        "meta_ra_of_asc_node": 108.65,
        "meta_arg_of_pericenter": 135.584,
        "meta_mean_anomaly": 224.7428,
        "meta_ephemeris_type": 0,
        "meta_classification_type": "U",
        "meta_norad_cat_id": 34451,
        "meta_element_set_no": 999,
        "meta_rev_at_epoch": 88481,
        "meta_bstar": 0.0036537809,
        "meta_mean_motion_dot": 0.00039917,
        "meta_mean_motion_ddot": 0,
        "tle_line1": "1 34451U 93036SU  25336.42937893  .00039917  00000+0  36538-2 0  9997",
        "tle_line2": "2 34451  74.0446 108.6500 0025909 135.5840 224.7428 14.94509424884815"
      },
      "geometry": {
        "type": "Point",
        "coordinates": [
          106.9831219013858,
          6.866898945275217
        ]
      }
    },
    {
      "type": "Feature",
      "properties": {
        "norad_id": 34452,
        "name": "COSMOS 2251 DEB",
        "group": "cosmos-2251-debris",
        "lat": -39.7436612701129,
        "lon": -173.3610090252861,
        "alt_km": 502.54053341919735,
        "timestamp": "2025-12-04T05:42:43.766458+00:00",
        "meta_object_name": "COSMOS 2251 DEB",
        "meta_object_id": "1993-036SV",
        "meta_epoch": "2025-12-03T17:41:07.353024",
        "meta_mean_motion": 15.1130014,
        "meta_eccentricity": 0.00673197,
        "meta_inclination": 74.0359,
        "meta_ra_of_asc_node": 201.4454,
        "meta_arg_of_pericenter": 279.6896,
        "meta_mean_anomaly": 192.9722,
        "meta_ephemeris_type": 0,
        "meta_classification_type": "U",
        "meta_norad_cat_id": 34452,
        "meta_element_set_no": 999,
        "meta_rev_at_epoch": 90526,
        "meta_bstar": 0.0011397725,
        "meta_mean_motion_dot": 0.00020286,
        "meta_mean_motion_ddot": 0,
        "tle_line1": "1 34452U 93036SV  25337.73689066  .00020286  00000+0  11398-2 0  9995",
        "tle_line2": "2 34452  74.0359 201.4454 0067319 279.6896 192.9722 15.11300140905261"
      },
      "geometry": {
        "type": "Point",
        "coordinates": [
          -173.3610090252861,
          -39.7436612701129
        ]
      }
    },
    {
      "type": "Feature",
      "properties": {
        "norad_id": 34453,
        "name": "COSMOS 2251 DEB",
        "group": "cosmos-2251-debris",
        "lat": 8.454486268945445,
        "lon": -64.07108930403496,
        "alt_km": 404.9081931578303,
        "timestamp": "2025-12-04T05:42:43.766468+00:00",
        "meta_object_name": "COSMOS 2251 DEB",
        "meta_object_id": "1993-036SW",
        "meta_epoch": "2025-12-03T12:01:51.170880",
        "meta_mean_motion": 15.57633461,
        "meta_eccentricity": 0.00187588,
        "meta_inclination": 74.1173,
        "meta_ra_of_asc_node": 119.9821,
        "meta_arg_of_pericenter": 353.7042,
        "meta_mean_anomaly": 6.3937,
        "meta_ephemeris_type": 0,
        "meta_classification_type": "U",
        "meta_norad_cat_id": 34453,
        "meta_element_set_no": 999,
        "meta_rev_at_epoch": 88722,
        "meta_bstar": 0.011553491,
        "meta_mean_motion_dot": 0.00949896,
        "meta_mean_motion_ddot": 0,
        "tle_line1": "1 34453U 93036SW  25337.50128670  .00949896  00000+0  11553-1 0  9999",
        "tle_line2": "2 34453  74.1173 119.9821 0018758 353.7042   6.3937 15.57633461887224"
      },
      "geometry": {
        "type": "Point",
        "coordinates": [
          -64.07108930403496,
          8.454486268945445
        ]
      }
    },
    {
      "type": "Feature",
      "properties": {
        "norad_id": 34454,
        "name": "COSMOS 2251 DEB",
        "group": "cosmos-2251-debris",
        "lat": 52.535359870035116,
        "lon": -44.80619664898429,
        "alt_km": 743.8756797100496,
        "timestamp": "2025-12-04T05:42:43.766478+00:00",
        "meta_object_name": "COSMOS 2251 DEB",
        "meta_object_id": "1993-036SX",
        "meta_epoch": "2025-12-03T14:26:14.256960",
        "meta_mean_motion": 14.38782265,
        "meta_eccentricity": 0.00352145,
        "meta_inclination": 74.0585,
        "meta_ra_of_asc_node": 294.4664,
        "meta_arg_of_pericenter": 359.0088,
        "meta_mean_anomaly": 1.099,
        "meta_ephemeris_type": 0,
        "meta_classification_type": "U",
        "meta_norad_cat_id": 34454,
        "meta_element_set_no": 999,
        "meta_rev_at_epoch": 87936,
        "meta_bstar": 0.00041216962,
        "meta_mean_motion_dot": 1.25e-05,
        "meta_mean_motion_ddot": 0,
        "tle_line1": "1 34454U 93036SX  25337.60155390  .00001250  00000+0  41217-3 0  9995",
        "tle_line2": "2 34454  74.0585 294.4664 0035214 359.0088   1.0990 14.38782265879362"
      },
      "geometry": {
        "type": "Point",
        "coordinates": [
          -44.80619664898429,
          52.535359870035116
        ]
      }
    }
  ]
}